{
"type": "FeatureCollection",
"crs": { "type": "name", "properties": { "name": "urn:ogc:def:crs:EPSG::2180" } },
"features": [
{ "type": "Feature", "properties": { "precipitation": 752.16510009765625, "NH4_dry": 256.20443725585938, "NH4_wet": 381.77145385742188, "NO3_dry": 130.54682922363281, "NO3_wet": 224.69766235351563, "Shape_Area": 73424154.850176141 }, "geometry": { "type": "Polygon", "coordinates": [ [ [ 737553.711483029881492, 654376.596514872275293 ], [ 744149.715361551498063, 654715.703801059164107 ], [ 743570.047642074991018, 665830.967125196941197 ], [ 736989.733499037683941, 665492.233265165239573 ], [ 737553.711483029881492, 654376.596514872275293 ] ] ] } },
{ "type": "Feature", "properties": { "precipitation": 757.3157958984375, "NH4_dry": 229.99029541015625, "NH4_wet": 385.34246826171875, "NO3_dry": 107.93508148193359, "NO3_wet": 218.217041015625, "Shape_Area": 73429947.934168473 }, "geometry": { "type": "Polygon", "coordinates": [ [ [ 744149.715361551498063, 654715.703801059164107 ], [ 750745.495807774947025, 655064.116190767847002 ], [ 750150.136409260565415, 666178.99571041110903 ], [ 743570.047642074991018, 665830.967125196941197 ], [ 744149.715361551498063, 654715.703801059164107 ] ] ] } },
{ "type": "Feature", "properties": { "precipitation": 750.63201904296875, "NH4_dry": 213.05018615722656, "NH4_wet": 371.3131103515625, "NO3_dry": 106.46610260009766, "NO3_wet": 209.61026000976563, "Shape_Area": 73435897.62387307 }, "geometry": { "type": "Polygon", "coordinates": [ [ [ 750745.495807774947025, 655064.116190767847002 ], [ 757341.046693021780811, 655421.834857393056154 ], [ 756729.993619763175957, 666536.320182235911489 ], [ 750150.136409260565415, 666178.99571041110903 ], [ 750745.495807774947025, 655064.116190767847002 ] ] ] } },
{ "type": "Feature", "properties": { "precipitation": 738.07110595703125, "NH4_dry": 394.43222045898438, "NH4_wet": 357.29318237304688, "NO3_dry": 154.7353515625, "NO3_wet": 206.634521484375, "Shape_Area": 73442003.922027394 }, "geometry": { "type": "Polygon", "coordinates": [ [ [ 757341.046693021780811, 655421.834857393056154 ], [ 763936.361881409306079, 655788.861005392856896 ], [ 763309.613085578661412, 666902.941732837818563 ], [ 756729.993619763175957, 666536.320182235911489 ], [ 757341.046693021780811, 655421.834857393056154 ] ] ] } },
{ "type": "Feature", "properties": { "precipitation": 738.3072509765625, "NH4_dry": 375.68441772460938, "NH4_wet": 344.64028930664063, "NO3_dry": 180.45014953613281, "NO3_wet": 202.440185546875, "Shape_Area": 73448266.831405506 }, "geometry": { "type": "Polygon", "coordinates": [ [ [ 763936.361881409306079, 655788.861005392856896 ], [ 770531.435229659546167, 656165.195870269089937 ], [ 769888.988611338310875, 667278.861585109494627 ], [ 763309.613085578661412, 666902.941732837818563 ], [ 763936.361881409306079, 655788.861005392856896 ] ] ] } },
{ "type": "Feature", "properties": { "precipitation": 745.37506103515625, "NH4_dry": 334.41940307617188, "NH4_wet": 334.4134521484375, "NO3_dry": 176.96463012695313, "NO3_wet": 201.49368286132813, "Shape_Area": 73454686.35487175 }, "geometry": { "type": "Polygon", "coordinates": [ [ [ 770531.435229659546167, 656165.195870269089937 ], [ 777126.260586910764687, 656550.840718545019627 ], [ 776468.113994121784344, 667664.080992645584047 ], [ 769888.988611338310875, 667278.861585109494627 ], [ 770531.435229659546167, 656165.195870269089937 ] ] ] } },
{ "type": "Feature", "properties": { "precipitation": 747.73095703125, "NH4_dry": 325.14663696289063, "NH4_wet": 325.91409301757813, "NO3_dry": 172.70048522949219, "NO3_wet": 195.77348327636719, "Shape_Area": 73461262.495307475 }, "geometry": { "type": "Polygon", "coordinates": [ [ [ 777126.260586910764687, 656550.840718545019627 ], [ 783720.831794524332508, 656945.796847756952047 ], [ 783046.983023264445364, 668058.601239728741348 ], [ 776468.113994121784344, 667664.080992645584047 ], [ 777126.260586910764687, 656550.840718545019627 ] ] ] } },
{ "type": "Feature", "properties": { "precipitation": 747.15167236328125, "NH4_dry": 303.99166870117188, "NH4_wet": 304.03366088867188, "NO3_dry": 177.09072875976563, "NO3_wet": 186.43901062011719, "Shape_Area": 73467995.255655468 }, "geometry": { "type": "Polygon", "coordinates": [ [ [ 783720.831794524332508, 656945.796847756952047 ], [ 790315.142685896367766, 657350.065586421638727 ], [ 789625.589480170048773, 668462.423641302622855 ], [ 783046.983023264445364, 668058.601239728741348 ], [ 783720.831794524332508, 656945.796847756952047 ] ] ] } },
{ "type": "Feature", "properties": { "precipitation": 749.7760009765625, "NH4_dry": 281.63400268554688, "NH4_wet": 310.51385498046875, "NO3_dry": 139.22575378417969, "NO3_wet": 186.31303405761719, "Shape_Area": 73474884.63891302 }, "geometry": { "type": "Polygon", "coordinates": [ [ [ 790315.142685896367766, 657350.065586421638727 ], [ 796909.187086265999824, 657763.648294026963413 ], [ 796203.927138119703159, 668875.549542962573469 ], [ 789625.589480170048773, 668462.423641302622855 ], [ 790315.142685896367766, 657350.065586421638727 ] ] ] } },
{ "type": "Feature", "properties": { "precipitation": 757.95635986328125, "NH4_dry": 178.9141845703125, "NH4_wet": 332.75958251953125, "NO3_dry": 103.03050994873047, "NO3_wet": 193.56340026855469, "Shape_Area": 73481930.648113877 }, "geometry": { "type": "Polygon", "coordinates": [ [ [ 796909.187086265999824, 657763.648294026963413 ], [ 803502.958812524098903, 658186.546361004002392 ], [ 802781.989762081764638, 669297.980320923961699 ], [ 796203.927138119703159, 668875.549542962573469 ], [ 796909.187086265999824, 657763.648294026963413 ] ] ] } },
{ "type": "Feature", "properties": { "precipitation": 775.44110107421875, "NH4_dry": 283.32260131835938, "NH4_wet": 356.20303344726563, "NO3_dry": 157.83670043945313, "NO3_wet": 213.81282043457031, "Shape_Area": 73250411.171364397 }, "geometry": { "type": "Polygon", "coordinates": [ [ [ 736989.733499037683941, 665492.233265165239573 ], [ 743570.047642074991018, 665830.967125196941197 ], [ 742989.633305513998494, 676946.339649292640388 ], [ 736425.028896073112264, 676607.983341308310628 ], [ 736989.733499037683941, 665492.233265165239573 ] ] ] } },
{ "type": "Feature", "properties": { "precipitation": 757.2603759765625, "NH4_dry": 210.91236877441406, "NH4_wet": 358.27789306640625, "NO3_dry": 116.64568328857422, "NO3_wet": 206.31076049804688, "Shape_Area": 73256162.943615913 }, "geometry": { "type": "Polygon", "coordinates": [ [ [ 743570.047642074991018, 665830.967125196941197 ], [ 750150.136409260565415, 666178.99571041110903 ], [ 749554.010410839458928, 677293.980191350914538 ], [ 742989.633305513998494, 676946.339649292640388 ], [ 743570.047642074991018, 665830.967125196941197 ] ] ] } },
{ "type": "Feature", "properties": { "precipitation": 746.99822998046875, "NH4_dry": 257.44070434570313, "NH4_wet": 351.49179077148438, "NO3_dry": 123.86927795410156, "NO3_wet": 198.3604736328125, "Shape_Area": 73262070.200296625 }, "geometry": { "type": "Polygon", "coordinates": [ [ [ 750150.136409260565415, 666178.99571041110903 ], [ 756729.993619763175957, 666536.320182235911489 ], [ 756118.153979482944123, 677650.906116966158152 ], [ 749554.010410839458928, 677293.980191350914538 ], [ 750150.136409260565415, 666178.99571041110903 ] ] ] } },
{ "type": "Feature", "properties": { "precipitation": 750.04071044921875, "NH4_dry": 257.02236938476563, "NH4_wet": 326.49267578125, "NO3_dry": 165.36199951171875, "NO3_wet": 197.00035095214844, "Shape_Area": 73268132.943772629 }, "geometry": { "type": "Polygon", "coordinates": [ [ [ 756729.993619763175957, 666536.320182235911489 ], [ 763309.613085578661412, 666902.941732837818563 ], [ 762682.057771735126153, 678017.11860603839159 ], [ 756118.153979482944123, 677650.906116966158152 ], [ 756729.993619763175957, 666536.320182235911489 ] ] ] } },
{ "type": "Feature", "properties": { "precipitation": 762.69378662109375, "NH4_dry": 316.52740478515625, "NH4_wet": 311.33956909179688, "NO3_dry": 202.51577758789063, "NO3_wet": 196.29386901855469, "Shape_Area": 73274351.176427051 }, "geometry": { "type": "Polygon", "coordinates": [ [ [ 763309.613085578661412, 666902.941732837818563 ], [ 769888.988611338310875, 667278.861585109494627 ], [ 769245.715540553675964, 678392.618868871591985 ], [ 762682.057771735126153, 678017.11860603839159 ], [ 763309.613085578661412, 666902.941732837818563 ] ] ] } },
{ "type": "Feature", "properties": { "precipitation": 772.929931640625, "NH4_dry": 311.77557373046875, "NH4_wet": 305.4932861328125, "NO3_dry": 231.19369506835938, "NO3_wet": 196.67835998535156, "Shape_Area": 73280724.900713772 }, "geometry": { "type": "Polygon", "coordinates": [ [ [ 769888.988611338310875, 667278.861585109494627 ], [ 776468.113994121784344, 667664.080992645584047 ], [ 775809.12103137630038, 678777.408146155066788 ], [ 769245.715540553675964, 678392.618868871591985 ], [ 769888.988611338310875, 667278.861585109494627 ] ] ] } },
{ "type": "Feature", "properties": { "precipitation": 778.0411376953125, "NH4_dry": 317.17959594726563, "NH4_wet": 307.06182861328125, "NO3_dry": 238.61541748046875, "NO3_wet": 198.16319274902344, "Shape_Area": 73287254.119103998 }, "geometry": { "type": "Polygon", "coordinates": [ [ [ 776468.113994121784344, 667664.080992645584047 ], [ 783046.983023264445364, 668058.601239728741348 ], [ 782372.267981930403039, 679171.48770894203335 ], [ 775809.12103137630038, 678777.408146155066788 ], [ 776468.113994121784344, 667664.080992645584047 ] ] ] } },
{ "type": "Feature", "properties": { "precipitation": 777.02581787109375, "NH4_dry": 304.08786010742188, "NH4_wet": 303.74850463867188, "NO3_dry": 225.22079467773438, "NO3_wet": 191.52078247070313, "Shape_Area": 73293938.834137887 }, "geometry": { "type": "Polygon", "coordinates": [ [ [ 783046.983023264445364, 668058.601239728741348 ], [ 789625.589480170048773, 668462.423641302622855 ], [ 788935.150122044840828, 679574.85885863378644 ], [ 782372.267981930403039, 679171.48770894203335 ], [ 783046.983023264445364, 668058.601239728741348 ] ] ] } },
{ "type": "Feature", "properties": { "precipitation": 769.68310546875, "NH4_dry": 311.63339233398438, "NH4_wet": 312.15353393554688, "NO3_dry": 219.54005432128906, "NO3_wet": 192.40986633300781, "Shape_Area": 73300779.0483751 }, "geometry": { "type": "Polygon", "coordinates": [ [ [ 789625.589480170048773, 668462.423641302622855 ], [ 796203.927138119703159, 668875.549542962573469 ], [ 795497.761173461098224, 679987.522926950827241 ], [ 788935.150122044840828, 679574.85885863378644 ], [ 789625.589480170048773, 668462.423641302622855 ] ] ] } },
{ "type": "Feature", "properties": { "precipitation": 756.5322265625, "NH4_dry": 337.65750122070313, "NH4_wet": 318.06973266601563, "NO3_dry": 213.65406799316406, "NO3_wet": 197.82235717773438, "Shape_Area": 73307774.764410198 }, "geometry": { "type": "Polygon", "coordinates": [ [ [ 796203.927138119703159, 668875.549542962573469 ], [ 802781.989762081764638, 669297.980320923961699 ], [ 802060.094849642948247, 680409.481275926344097 ], [ 795497.761173461098224, 679987.522926950827241 ], [ 796203.927138119703159, 668875.549542962573469 ] ] ] } },
{ "type": "Feature", "properties": { "precipitation": 770.8023681640625, "NH4_dry": 262.57601928710938, "NH4_wet": 343.209716796875, "NO3_dry": 145.35845947265625, "NO3_wet": 204.22198486328125, "Shape_Area": 73076437.686253503 }, "geometry": { "type": "Polygon", "coordinates": [ [ [ 736425.028896073112264, 676607.983341309241951 ], [ 742989.633305513998494, 676946.339649293571711 ], [ 742408.474111425457522, 688061.821256320923567 ], [ 735859.599385772482492, 687723.846621663309634 ], [ 736425.028896073112264, 676607.983341309241951 ] ] ] } },
{ "type": "Feature", "properties": { "precipitation": 745.79205322265625, "NH4_dry": 232.52464294433594, "NH4_wet": 345.1571044921875, "NO3_dry": 134.97314453125, "NO3_wet": 199.73060607910156, "Shape_Area": 73082148.291421816 }, "geometry": { "type": "Polygon", "coordinates": [ [ [ 742989.633305513998494, 676946.339649293571711 ], [ 749554.010410839458928, 677293.980191352777183 ], [ 748957.119620020734146, 688409.069521308876574 ], [ 742408.474111425457522, 688061.821256320923567 ], [ 742989.633305513998494, 676946.339649293571711 ] ] ] } },
{ "type": "Feature", "properties": { "precipitation": 738.0643310546875, "NH4_dry": 316.40267944335938, "NH4_wet": 337.51458740234375, "NO3_dry": 163.34089660644531, "NO3_wet": 191.44461059570313, "Shape_Area": 73088013.263721839 }, "geometry": { "type": "Polygon", "coordinates": [ [ [ 749554.010410839458928, 677293.980191352777183 ], [ 756118.153979482944123, 677650.906116968020797 ], [ 755505.529627673327923, 688765.592554184608161 ], [ 748957.119620020734146, 688409.069521308876574 ], [ 749554.010410839458928, 677293.980191352777183 ] ] ] } },
{ "type": "Feature", "properties": { "precipitation": 751.1229248046875, "NH4_dry": 347.54666137695313, "NH4_wet": 325.55398559570313, "NO3_dry": 193.36869812011719, "NO3_wet": 194.5113525390625, "Shape_Area": 73094032.605140463 }, "geometry": { "type": "Polygon", "coordinates": [ [ [ 756118.153979482944123, 677650.906116968020797 ], [ 762682.057771735126153, 678017.118606039322913 ], [ 762053.697843386093155, 689131.391522604972124 ], [ 755505.529627673327923, 688765.592554184608161 ], [ 756118.153979482944123, 677650.906116968020797 ] ] ] } },
{ "type": "Feature", "properties": { "precipitation": 766.16583251953125, "NH4_dry": 313.13616943359375, "NH4_wet": 305.2864990234375, "NO3_dry": 203.04545593261719, "NO3_wet": 192.35195922851563, "Shape_Area": 73100206.317673653 }, "geometry": { "type": "Polygon", "coordinates": [ [ [ 762682.057771735126153, 678017.118606039322913 ], [ 769245.715540553559549, 678392.61886887345463 ], [ 768601.61796886054799, 689506.467624310404062 ], [ 762053.697843386093155, 689131.391522604972124 ], [ 762682.057771735126153, 678017.118606039322913 ] ] ] } },
{ "type": "Feature", "properties": { "precipitation": 774.39813232421875, "NH4_dry": 320.38818359375, "NH4_wet": 292.6837158203125, "NO3_dry": 230.41802978515625, "NO3_wet": 187.00814819335938, "Shape_Area": 73106534.403382108 }, "geometry": { "type": "Polygon", "coordinates": [ [ [ 769245.715540553559549, 678392.61886887345463 ], [ 775809.12103137630038, 678777.408146156929433 ], [ 775149.283698311308399, 689890.822087107226253 ], [ 768601.61796886054799, 689506.467624310404062 ], [ 769245.715540553559549, 678392.61886887345463 ] ] ] } },
{ "type": "Feature", "properties": { "precipitation": 781.04840087890625, "NH4_dry": 262.40927124023438, "NH4_wet": 289.52392578125, "NO3_dry": 199.98957824707031, "NO3_wet": 184.12576293945313, "Shape_Area": 73113016.864346772 }, "geometry": { "type": "Polygon", "coordinates": [ [ [ 775809.12103137630038, 678777.408146156929433 ], [ 782372.267981930170208, 679171.487708944827318 ], [ 781696.688718275283463, 690284.456168849952519 ], [ 775149.283698311308399, 689890.822087107226253 ], [ 775809.12103137630038, 678777.408146156929433 ] ] ] } },
{ "type": "Feature", "properties": { "precipitation": 780.48394775390625, "NH4_dry": 302.49783325195313, "NH4_wet": 296.94546508789063, "NO3_dry": 230.58848571777344, "NO3_wet": 186.09609985351563, "Shape_Area": 73119653.702694103 }, "geometry": { "type": "Polygon", "coordinates": [ [ [ 782372.267981930170208, 679171.487708944827318 ], [ 788935.150122044840828, 679574.858858634717762 ], [ 788243.826707425294444, 690687.371157414279878 ], [ 781696.688718275283463, 690284.456168849952519 ], [ 782372.267981930170208, 679171.487708944827318 ] ] ] } },
{ "type": "Feature", "properties": { "precipitation": 777.503662109375, "NH4_dry": 312.39022827148438, "NH4_wet": 308.548583984375, "NO3_dry": 238.7574462890625, "NO3_wet": 195.75955200195313, "Shape_Area": 73126444.920555159 }, "geometry": { "type": "Polygon", "coordinates": [ [ [ 788935.150122044840828, 679574.858858634717762 ], [ 795497.761173460981809, 679987.522926953621209 ], [ 794790.691336381831206, 691099.568370683118701 ], [ 788243.826707425294444, 690687.371157414279878 ], [ 788935.150122044840828, 679574.858858634717762 ] ] ] } },
{ "type": "Feature", "properties": { "precipitation": 773.977294921875, "NH4_dry": 318.20965576171875, "NH4_wet": 325.38104248046875, "NO3_dry": 222.78294372558594, "NO3_wet": 205.21266174316406, "Shape_Area": 73133390.520089149 }, "geometry": { "type": "Polygon", "coordinates": [ [ [ 795497.761173460981809, 679987.522926953621209 ], [ 802060.094849642831832, 680409.481275928206742 ], [ 801337.276267523411661, 691521.049156522378325 ], [ 794790.691336381831206, 691099.568370683118701 ], [ 795497.761173460981809, 679987.522926953621209 ] ] ] } },
{ "type": "Feature", "properties": { "precipitation": 735.00946044921875, "NH4_dry": 189.93829345703125, "NH4_wet": 328.82254028320313, "NO3_dry": 114.02354431152344, "NO3_wet": 193.81449890136719, "Shape_Area": 72902234.912590191 }, "geometry": { "type": "Polygon", "coordinates": [ [ [ 735859.599385772482492, 687723.846621663309634 ], [ 742408.474111425457522, 688061.821256320923567 ], [ 741826.571821763645858, 699177.411827906966209 ], [ 735293.446682108798996, 698839.822983189485967 ], [ 735859.599385772482492, 687723.846621663309634 ] ] ] } },
{ "type": "Feature", "properties": { "precipitation": 729.483642578125, "NH4_dry": 211.44705200195313, "NH4_wet": 331.61026000976563, "NO3_dry": 119.37783813476563, "NO3_wet": 190.41249084472656, "Shape_Area": 72907904.495745704 }, "geometry": { "type": "Polygon", "coordinates": [ [ [ 742408.474111425457522, 688061.821256320923567 ], [ 748957.119620020734146, 688409.069521308876574 ], [ 748359.465846769278869, 699524.263586705550551 ], [ 741826.571821763645858, 699177.411827906966209 ], [ 742408.474111425457522, 688061.821256320923567 ] ] ] } },
{ "type": "Feature", "properties": { "precipitation": 729.84869384765625, "NH4_dry": 226.57315063476563, "NH4_wet": 327.3558349609375, "NO3_dry": 137.20732116699219, "NO3_wet": 186.43147277832031, "Shape_Area": 72913727.332719177 }, "geometry": { "type": "Polygon", "coordinates": [ [ [ 748957.119620020734146, 688409.069521308876574 ], [ 755505.529627673327923, 688765.592554184608161 ], [ 754892.122422340675257, 699880.379385243169963 ], [ 748359.465846769278869, 699524.263586705550551 ], [ 748957.119620020734146, 688409.069521308876574 ] ] ] } },
{ "type": "Feature", "properties": { "precipitation": 743.3101806640625, "NH4_dry": 237.82559204101563, "NH4_wet": 320.27084350585938, "NO3_dry": 182.31758117675781, "NO3_wet": 189.59303283691406, "Shape_Area": 72919703.425113723 }, "geometry": { "type": "Polygon", "coordinates": [ [ [ 755505.529627673327923, 688765.592554184608161 ], [ 762053.697843386093155, 689131.391522604972124 ], [ 761424.535206611035392, 700245.760378953069448 ], [ 754892.122422340675257, 699880.379385243169963 ], [ 755505.529627673327923, 688765.592554184608161 ] ] ] } },
{ "type": "Feature", "properties": { "precipitation": 757.62347412109375, "NH4_dry": 302.65313720703125, "NH4_wet": 314.446533203125, "NO3_dry": 174.97492980957031, "NO3_wet": 193.00099182128906, "Shape_Area": 72925832.774567738 }, "geometry": { "type": "Polygon", "coordinates": [ [ [ 762053.697843386093155, 689131.391522604972124 ], [ 768601.61796886054799, 689506.467624310404062 ], [ 767956.697850444819778, 700620.407753041945398 ], [ 761424.535206611035392, 700245.760378953069448 ], [ 762053.697843386093155, 689131.391522604972124 ] ] ] } },
{ "type": "Feature", "properties": { "precipitation": 764.61334228515625, "NH4_dry": 310.42364501953125, "NH4_wet": 314.13894653320313, "NO3_dry": 172.05532836914063, "NO3_wet": 189.05911254882813, "Shape_Area": 72932115.382775113 }, "geometry": { "type": "Polygon", "coordinates": [ [ [ 768601.61796886054799, 689506.467624310404062 ], [ 775149.283698311308399, 689890.822087107226253 ], [ 774488.603997251251712, 701004.322722460143268 ], [ 767956.697850444819778, 700620.407753041945398 ], [ 768601.61796886054799, 689506.467624310404062 ] ] ] } },
{ "type": "Feature", "properties": { "precipitation": 769.3184814453125, "NH4_dry": 277.97030639648438, "NH4_wet": 320.09732055664063, "NO3_dry": 162.44810485839844, "NO3_wet": 188.02659606933594, "Shape_Area": 72938551.251399308 }, "geometry": { "type": "Polygon", "coordinates": [ [ [ 775149.283698311308399, 689890.822087107226253 ], [ 781696.688718275283463, 690284.456168849952519 ], [ 781020.247282796422951, 701397.506531880237162 ], [ 774488.603997251251712, 701004.322722460143268 ], [ 775149.283698311308399, 689890.822087107226253 ] ] ] } },
{ "type": "Feature", "properties": { "precipitation": 775.09320068359375, "NH4_dry": 279.49862670898438, "NH4_wet": 314.67831420898438, "NO3_dry": 154.84413146972656, "NO3_wet": 185.97947692871094, "Shape_Area": 72945140.382143095 }, "geometry": { "type": "Polygon", "coordinates": [ [ [ 781696.688718275283463, 690284.456168849952519 ], [ 788243.826707425294444, 690687.371157414279878 ], [ 787551.621335016330704, 701799.960455685853958 ], [ 781020.247282796422951, 701397.506531880237162 ], [ 781696.688718275283463, 690284.456168849952519 ] ] ] } },
{ "type": "Feature", "properties": { "precipitation": 786.71697998046875, "NH4_dry": 269.50881958007813, "NH4_wet": 324.712646484375, "NO3_dry": 165.60043334960938, "NO3_wet": 194.27439880371094, "Shape_Area": 72951882.776742443 }, "geometry": { "type": "Polygon", "coordinates": [ [ [ 788243.826707425294444, 690687.371157414279878 ], [ 794790.691336381831206, 691099.568370683118701 ], [ 794082.719773829681799, 702211.685797943733633 ], [ 787551.621335016330704, 701799.960455685853958 ], [ 788243.826707425294444, 690687.371157414279878 ] ] ] } },
{ "type": "Feature", "properties": { "precipitation": 800.6304931640625, "NH4_dry": 309.40350341796875, "NH4_wet": 331.82254028320313, "NO3_dry": 202.62800598144531, "NO3_wet": 203.15821838378906, "Shape_Area": 72958778.436932534 }, "geometry": { "type": "Polygon", "coordinates": [ [ [ 794790.691336381831206, 691099.568370683118701 ], [ 801337.276267523411661, 691521.049156522378325 ], [ 800613.536210949765518, 702632.683892386965454 ], [ 794082.719773829681799, 702211.685797943733633 ], [ 794790.691336381831206, 691099.568370683118701 ] ] ] } },
{ "type": "Feature", "properties": { "precipitation": 716.991943359375, "NH4_dry": 207.46076965332031, "NH4_wet": 316.685791015625, "NO3_dry": 116.40141296386719, "NO3_wet": 187.89372253417969, "Shape_Area": 72727803.369038299 }, "geometry": { "type": "Polygon", "coordinates": [ [ [ 735293.446682108798996, 698839.82298319041729 ], [ 741826.571821763645858, 699177.411827907897532 ], [ 741243.928200874244794, 710293.111244334839284 ], [ 734726.572501388378441, 709955.91230146214366 ], [ 735293.446682108798996, 698839.82298319041729 ] ] ] } },
{ "type": "Feature", "properties": { "precipitation": 716.26629638671875, "NH4_dry": 166.47087097167969, "NH4_wet": 317.15338134765625, "NO3_dry": 99.471168518066406, "NO3_wet": 183.24102783203125, "Shape_Area": 72733432.075628251 }, "geometry": { "type": "Polygon", "coordinates": [ [ [ 741826.571821763645858, 699177.411827907897532 ], [ 748359.465846769278869, 699524.263586706481874 ], [ 747761.050903500639834, 710639.562272674404085 ], [ 741243.928200874244794, 710293.111244334839284 ], [ 741826.571821763645858, 699177.411827907897532 ] ] ] } },
{ "type": "Feature", "properties": { "precipitation": 728.41650390625, "NH4_dry": 171.30976867675781, "NH4_wet": 310.61422729492188, "NO3_dry": 110.43701934814453, "NO3_wet": 179.73684692382813, "Shape_Area": 72739212.926733494 }, "geometry": { "type": "Polygon", "coordinates": [ [ [ 748359.465846769278869, 699524.263586706481874 ], [ 754892.122422340558842, 699880.379385243169963 ], [ 754277.934224000666291, 710995.266500257886946 ], [ 747761.050903500639834, 710639.562272674404085 ], [ 748359.465846769278869, 699524.263586706481874 ] ] ] } },
{ "type": "Feature", "properties": { "precipitation": 753.56561279296875, "NH4_dry": 223.32244873046875, "NH4_wet": 316.47702026367188, "NO3_dry": 148.85922241210938, "NO3_wet": 182.85980224609375, "Shape_Area": 72745145.923593283 }, "geometry": { "type": "Polygon", "coordinates": [ [ [ 754892.122422340558842, 699880.379385243169963 ], [ 761424.535206611035392, 700245.760378954932094 ], [ 760794.571770057198592, 711360.225070325657725 ], [ 754277.934224000666291, 710995.266500257886946 ], [ 754892.122422340558842, 699880.379385243169963 ] ] ] } },
{ "type": "Feature", "properties": { "precipitation": 782.5987548828125, "NH4_dry": 220.35652160644531, "NH4_wet": 338.80270385742188, "NO3_dry": 133.32598876953125, "NO3_wet": 193.87130737304688, "Shape_Area": 72751231.067472175 }, "geometry": { "type": "Polygon", "coordinates": [ [ [ 761424.535206611035392, 700245.760378954932094 ], [ 767956.697850444703363, 700620.407753043808043 ], [ 767310.957142116269097, 711734.439155568368733 ], [ 760794.571770057198592, 711360.225070325657725 ], [ 761424.535206611035392, 700245.760378954932094 ] ] ] } },
{ "type": "Feature", "properties": { "precipitation": 803.67431640625, "NH4_dry": 238.72891235351563, "NH4_wet": 350.69100952148438, "NO3_dry": 120.28971862792969, "NO3_wet": 197.33802795410156, "Shape_Area": 72757468.359663427 }, "geometry": { "type": "Polygon", "coordinates": [ [ [ 767956.697850444703363, 700620.407753043808043 ], [ 774488.603997251251712, 701004.322722461074591 ], [ 773827.083933201967739, 712117.909958102740347 ], [ 767310.957142116269097, 711734.439155568368733 ], [ 767956.697850444703363, 700620.407753043808043 ] ] ] } },
{ "type": "Feature", "properties": { "precipitation": 816.26373291015625, "NH4_dry": 291.30520629882813, "NH4_wet": 343.74826049804688, "NO3_dry": 143.14741516113281, "NO3_wet": 196.19003295898438, "Shape_Area": 72763857.801449761 }, "geometry": { "type": "Polygon", "coordinates": [ [ [ 774488.603997251251712, 701004.322722461074591 ], [ 781020.247282796306536, 701397.506531882099807 ], [ 780342.945728728780523, 712510.638709455728531 ], [ 773827.083933201967739, 712117.909958102740347 ], [ 774488.603997251251712, 701004.322722461074591 ] ] ] } },
{ "type": "Feature", "properties": { "precipitation": 817.8153076171875, "NH4_dry": 254.53631591796875, "NH4_wet": 343.78070068359375, "NO3_dry": 132.8681640625, "NO3_wet": 195.88681030273438, "Shape_Area": 72770399.39415139 }, "geometry": { "type": "Polygon", "coordinates": [ [ [ 781020.247282796306536, 701397.506531882099807 ], [ 787551.621335016214289, 701799.960455685853958 ], [ 786858.536106316139922, 712912.626670538447797 ], [ 780342.945728728780523, 712510.638709455728531 ], [ 781020.247282796306536, 701397.506531882099807 ] ] ] } },
{ "type": "Feature", "properties": { "precipitation": 805.319091796875, "NH4_dry": 227.30146789550781, "NH4_wet": 343.33892822265625, "NO3_dry": 117.17324829101563, "NO3_wet": 198.23587036132813, "Shape_Area": 72777093.13908644 }, "geometry": { "type": "Polygon", "coordinates": [ [ [ 787551.621335016214289, 701799.960455685853958 ], [ 794082.719773829681799, 702211.685797943733633 ], [ 793373.84863560134545, 713323.875131634064019 ], [ 786858.536106316139922, 712912.626670538447797 ], [ 787551.621335016214289, 701799.960455685853958 ] ] ] } },
{ "type": "Feature", "properties": { "precipitation": 791.8563232421875, "NH4_dry": 159.74919128417969, "NH4_wet": 315.46063232421875, "NO3_dry": 108.23717498779297, "NO3_wet": 194.23991394042969, "Shape_Area": 72783939.037564516 }, "geometry": { "type": "Polygon", "coordinates": [ [ [ 794082.719773829681799, 702211.685797943733633 ], [ 800613.536210949765518, 702632.683892387896776 ], [ 799888.876878052717075, 713744.385412367992103 ], [ 793373.84863560134545, 713323.875131634064019 ], [ 794082.719773829681799, 702211.685797943733633 ] ] ] } },
{ "type": "Feature", "properties": { "precipitation": 724.6923828125, "NH4_dry": 190.92486572265625, "NH4_wet": 306.895751953125, "NO3_dry": 105.60145568847656, "NO3_wet": 183.74650573730469, "Shape_Area": 72553143.575124353 }, "geometry": { "type": "Polygon", "coordinates": [ [ [ 734726.572501388378441, 709955.91230146214366 ], [ 741243.928200874244794, 710293.111244334839284 ], [ 740660.545015489915386, 721408.919384547509253 ], [ 734158.978562244214118, 721072.114450654946268 ], [ 734726.572501388378441, 709955.91230146214366 ] ] ] } },
{ "type": "Feature", "properties": { "precipitation": 716.91796875, "NH4_dry": 201.85005187988281, "NH4_wet": 302.51016235351563, "NO3_dry": 112.61428070068359, "NO3_wet": 179.11056518554688, "Shape_Area": 72558731.551018238 }, "geometry": { "type": "Polygon", "coordinates": [ [ [ 741243.928200874244794, 710293.111244334839284 ], [ 747761.050903500639834, 710639.562272674404085 ], [ 747161.876605075667612, 721754.965463056229055 ], [ 740660.545015489915386, 721408.919384547509253 ], [ 741243.928200874244794, 710293.111244334839284 ] ] ] } },
{ "type": "Feature", "properties": { "precipitation": 726.27783203125, "NH4_dry": 221.55978393554688, "NH4_wet": 300.43603515625, "NO3_dry": 121.06600952148438, "NO3_wet": 178.6514892578125, "Shape_Area": 72564470.566114351 }, "geometry": { "type": "Polygon", "coordinates": [ [ [ 747761.050903500639834, 710639.562272674404085 ], [ 754277.934224000666291, 710995.266500257886946 ], [ 753662.966895672609098, 722110.253788107074797 ], [ 747161.876605075667612, 721754.965463056229055 ], [ 747761.050903500639834, 710639.562272674404085 ] ] ] } },
{ "type": "Feature", "properties": { "precipitation": 747.611083984375, "NH4_dry": 204.61625671386719, "NH4_wet": 321.27334594726563, "NO3_dry": 113.74834442138672, "NO3_wet": 182.39689636230469, "Shape_Area": 72570360.621311814 }, "geometry": { "type": "Polygon", "coordinates": [ [ [ 754277.934224000666291, 710995.266500257886946 ], [ 760794.571770057198592, 711360.225070325657725 ], [ 760163.809444932732731, 722474.785490769892931 ], [ 753662.966895672609098, 722110.253788107074797 ], [ 754277.934224000666291, 710995.266500257886946 ] ] ] } },
{ "type": "Feature", "properties": { "precipitation": 774.766845703125, "NH4_dry": 224.19087219238281, "NH4_wet": 341.535888671875, "NO3_dry": 122.40730285644531, "NO3_wet": 189.62660217285156, "Shape_Area": 72576401.717513904 }, "geometry": { "type": "Polygon", "coordinates": [ [ [ 760794.571770057198592, 711360.225070325657725 ], [ 767310.957142116269097, 711734.439155568368733 ], [ 766664.397803304018453, 722848.561731247231364 ], [ 760163.809444932732731, 722474.785490769892931 ], [ 760794.571770057198592, 711360.225070325657725 ] ] ] } },
{ "type": "Feature", "properties": { "precipitation": 801.15655517578125, "NH4_dry": 244.57374572753906, "NH4_wet": 365.252685546875, "NO3_dry": 123.98811340332031, "NO3_wet": 197.86515808105469, "Shape_Area": 72582593.855626583 }, "geometry": { "type": "Polygon", "coordinates": [ [ [ 767310.957142116269097, 711734.439155568368733 ], [ 773827.083933201967739, 712117.909958102740347 ], [ 773164.725513845216483, 723231.583698848262429 ], [ 766664.397803304018453, 722848.561731247231364 ], [ 767310.957142116269097, 711734.439155568368733 ] ] ] } },
{ "type": "Feature", "properties": { "precipitation": 823.31280517578125, "NH4_dry": 191.92774963378906, "NH4_wet": 346.88400268554688, "NO3_dry": 104.90729522705078, "NO3_wet": 190.77133178710938, "Shape_Area": 72588937.036556557 }, "geometry": { "type": "Polygon", "coordinates": [ [ [ 773827.083933201967739, 712117.909958102740347 ], [ 780342.945728728780523, 712510.638709455728531 ], [ 779664.786112039815634, 723623.852611977607012 ], [ 773164.725513845216483, 723231.583698848262429 ], [ 773827.083933201967739, 712117.909958102740347 ] ] ] } },
{ "type": "Feature", "properties": { "precipitation": 832.46514892578125, "NH4_dry": 164.106689453125, "NH4_wet": 347.16448974609375, "NO3_dry": 104.66776275634766, "NO3_wet": 197.17922973632813, "Shape_Area": 72595431.261224419 }, "geometry": { "type": "Polygon", "coordinates": [ [ [ 780342.945728728780523, 712510.638709455728531 ], [ 786858.536106316139922, 712912.626670538447797 ], [ 786164.573125611292198, 724025.369718105532229 ], [ 779664.786112039815634, 723623.852611977607012 ], [ 780342.945728728780523, 712510.638709455728531 ] ] ] } },
{ "type": "Feature", "properties": { "precipitation": 812.57568359375, "NH4_dry": 153.20808410644531, "NH4_wet": 324.5684814453125, "NO3_dry": 106.16661834716797, "NO3_wet": 194.16111755371094, "Shape_Area": 72602076.530545771 }, "geometry": { "type": "Polygon", "coordinates": [ [ [ 786858.536106316139922, 712912.626670538447797 ], [ 793373.84863560134545, 713323.875131634064019 ], [ 792664.080074336845428, 724436.136293755844235 ], [ 786164.573125611292198, 724025.369718105532229 ], [ 786858.536106316139922, 712912.626670538447797 ] ] ] } },
{ "type": "Feature", "properties": { "precipitation": 781.11431884765625, "NH4_dry": 167.80685424804688, "NH4_wet": 315.04595947265625, "NO3_dry": 118.35281372070313, "NO3_wet": 194.48036193847656, "Shape_Area": 72608872.845425546 }, "geometry": { "type": "Polygon", "coordinates": [ [ [ 793373.84863560134545, 713323.875131634064019 ], [ 799888.876878052717075, 713744.385412367992103 ], [ 799163.300469861365855, 724856.153644477017224 ], [ 792664.080074336845428, 724436.136293755844235 ], [ 793373.84863560134545, 713323.875131634064019 ] ] ] } },
{ "type": "Feature", "properties": { "precipitation": 746.2545166015625, "NH4_dry": 395.67303466796875, "NH4_wet": 294.62686157226563, "NO3_dry": 220.00140380859375, "NO3_wet": 189.59693908691406, "Shape_Area": 72378256.051276639 }, "geometry": { "type": "Polygon", "coordinates": [ [ [ 734158.978562244214118, 721072.114450657740235 ], [ 740660.545015489682555, 721408.919384549371898 ], [ 740076.424034724710509, 732524.836126149632037 ], [ 733590.666585632250644, 732188.42930356413126 ], [ 734158.978562244214118, 721072.114450657740235 ] ] ] } },
{ "type": "Feature", "properties": { "precipitation": 740.89154052734375, "NH4_dry": 225.83888244628906, "NH4_wet": 306.62417602539063, "NO3_dry": 125.96411895751953, "NO3_wet": 189.63761901855469, "Shape_Area": 72383803.442707032 }, "geometry": { "type": "Polygon", "coordinates": [ [ [ 740660.545015489682555, 721408.919384549371898 ], [ 747161.876605075551197, 721754.965463059023023 ], [ 746561.944768795627169, 732870.473040407523513 ], [ 740076.424034724710509, 732524.836126149632037 ], [ 740660.545015489682555, 721408.919384549371898 ] ] ] } },
{ "type": "Feature", "properties": { "precipitation": 735.331787109375, "NH4_dry": 185.56101989746094, "NH4_wet": 315.47152709960938, "NO3_dry": 102.23342132568359, "NO3_wet": 184.39830017089844, "Shape_Area": 72389500.772065461 }, "geometry": { "type": "Polygon", "coordinates": [ [ [ 747161.876605075551197, 721754.965463059023023 ], [ 753662.966895672492683, 722110.253788108937442 ], [ 753047.222302874084562, 733225.341136436909437 ], [ 746561.944768795627169, 732870.473040407523513 ], [ 747161.876605075551197, 721754.965463059023023 ] ] ] } },
{ "type": "Feature", "properties": { "precipitation": 731.5179443359375, "NH4_dry": 257.959716796875, "NH4_wet": 323.451171875, "NO3_dry": 126.06029510498047, "NO3_wet": 181.73439025878906, "Shape_Area": 72395348.039903551 }, "geometry": { "type": "Polygon", "coordinates": [ [ [ 753662.966895672492683, 722110.253788108937442 ], [ 760163.809444932732731, 722474.785490772686899 ], [ 759532.250145002151839, 733589.441533162258565 ], [ 753047.222302874084562, 733225.341136436909437 ], [ 753662.966895672492683, 722110.253788108937442 ] ] ] } },
{ "type": "Feature", "properties": { "precipitation": 740.8773193359375, "NH4_dry": 228.33522033691406, "NH4_wet": 333.189208984375, "NO3_dry": 122.3922119140625, "NO3_wet": 185.02290344238281, "Shape_Area": 72401345.246749952 }, "geometry": { "type": "Polygon", "coordinates": [ [ [ 760163.809444932732731, 722474.785490772686899 ], [ 766664.397803303785622, 722848.561731248162687 ], [ 766017.021796049783006, 733962.775378321297467 ], [ 759532.250145002151839, 733589.441533162258565 ], [ 760163.809444932732731, 722474.785490772686899 ] ] ] } },
{ "type": "Feature", "properties": { "precipitation": 763.984130859375, "NH4_dry": 236.10044860839844, "NH4_wet": 343.41287231445313, "NO3_dry": 116.72544097900391, "NO3_wet": 189.52798461914063, "Shape_Area": 72407492.393152073 }, "geometry": { "type": "Polygon", "coordinates": [ [ [ 766664.397803303785622, 722848.561731248162687 ], [ 773164.725513844983652, 723231.583698851056397 ], [ 772501.53074953192845, 734345.343848446384072 ], [ 766017.021796049783006, 733962.775378321297467 ], [ 766664.397803303785622, 722848.561731248162687 ] ] ] } },
{ "type": "Feature", "properties": { "precipitation": 783.469482421875, "NH4_dry": 208.0770263671875, "NH4_wet": 358.22491455078125, "NO3_dry": 101.56697845458984, "NO3_wet": 195.59498596191406, "Shape_Area": 72413789.479636699 }, "geometry": { "type": "Polygon", "coordinates": [ [ [ 773164.725513844983652, 723231.583698851056397 ], [ 779664.786112039699219, 723623.852611979469657 ], [ 778985.77049142238684, 734737.148148844949901 ], [ 772501.53074953192845, 734345.343848446384072 ], [ 773164.725513844983652, 723231.583698851056397 ] ] ] } },
{ "type": "Feature", "properties": { "precipitation": 788.177734375, "NH4_dry": 188.00666809082031, "NH4_wet": 342.06106567382813, "NO3_dry": 108.42286682128906, "NO3_wet": 194.98468017578125, "Shape_Area": 72420236.506733507 }, "geometry": { "type": "Polygon", "coordinates": [ [ [ 779664.786112039699219, 723623.852611979469657 ], [ 786164.573125611059368, 724025.369718108326197 ], [ 785469.734499969752505, 735138.189513573423028 ], [ 778985.77049142238684, 734737.148148844949901 ], [ 779664.786112039699219, 723623.852611979469657 ] ] ] } },
{ "type": "Feature", "properties": { "precipitation": 787.13543701171875, "NH4_dry": 173.52462768554688, "NH4_wet": 332.8760986328125, "NO3_dry": 98.51361083984375, "NO3_wet": 196.63984680175781, "Shape_Area": 72426833.474956796 }, "geometry": { "type": "Polygon", "coordinates": [ [ [ 786164.573125611059368, 724025.369718108326197 ], [ 792664.080074336729012, 724436.136293758638203 ], [ 791953.416245512664318, 735548.46920542512089 ], [ 785469.734499969752505, 735138.189513573423028 ], [ 786164.573125611059368, 724025.369718108326197 ] ] ] } },
{ "type": "Feature", "properties": { "precipitation": 788.366455078125, "NH4_dry": 170.20552062988281, "NH4_wet": 322.49371337890625, "NO3_dry": 121.99407958984375, "NO3_wet": 200.312255859375, "Shape_Area": 72433580.38481763 }, "geometry": { "type": "Polygon", "coordinates": [ [ [ 792664.080074336729012, 724436.136293758638203 ], [ 799163.300469861133024, 724856.153644479811192 ], [ 798436.809190294472501, 735967.988515903241932 ], [ 791953.416245512664318, 735548.46920542512089 ], [ 792664.080074336729012, 724436.136293758638203 ] ] ] } },
{ "type": "Feature", "properties": { "precipitation": 761.7144775390625, "NH4_dry": 252.64317321777344, "NH4_wet": 286.60711669921875, "NO3_dry": 203.40110778808594, "NO3_wet": 199.16146850585938, "Shape_Area": 72203141.318771452 }, "geometry": { "type": "Polygon", "coordinates": [ [ [ 733590.666585632250644, 732188.42930356413126 ], [ 740076.424034724710509, 732524.836126149632037 ], [ 739491.567030069185421, 743640.861345398239791 ], [ 733021.638294826145284, 743304.856731585226953 ], [ 733590.666585632250644, 732188.42930356413126 ] ] ] } },
{ "type": "Feature", "properties": { "precipitation": 766.6812744140625, "NH4_dry": 246.55535888671875, "NH4_wet": 304.82540893554688, "NO3_dry": 123.28475189208984, "NO3_wet": 198.01226806640625, "Shape_Area": 72208648.272370085 }, "geometry": { "type": "Polygon", "coordinates": [ [ [ 740076.424034724710509, 732524.836126149632037 ], [ 746561.944768795627169, 732870.473040407523513 ], [ 745961.257214396377094, 743986.08488599024713 ], [ 739491.567030069185421, 743640.861345398239791 ], [ 740076.424034724710509, 732524.836126149632037 ] ] ] } },
{ "type": "Feature", "properties": { "precipitation": 759.88128662109375, "NH4_dry": 220.97627258300781, "NH4_wet": 293.41256713867188, "NO3_dry": 142.19400024414063, "NO3_wet": 191.87644958496094, "Shape_Area": 72214304.066662997 }, "geometry": { "type": "Polygon", "coordinates": [ [ [ 746561.944768795627169, 732870.473040407523513 ], [ 753047.222302874084562, 733225.341136436909437 ], [ 752430.702313615824096, 744340.528431651182473 ], [ 745961.257214396377094, 743986.08488599024713 ], [ 746561.944768795627169, 732870.473040407523513 ] ] ] } },
{ "type": "Feature", "properties": { "precipitation": 751.211669921875, "NH4_dry": 167.87403869628906, "NH4_wet": 303.196044921875, "NO3_dry": 113.82353973388672, "NO3_wet": 190.87525939941406, "Shape_Area": 72220108.701832056 }, "geometry": { "type": "Polygon", "coordinates": [ [ [ 753047.222302874084562, 733225.341136436909437 ], [ 759532.250145002151839, 733589.441533162258565 ], [ 758899.895786580163985, 744704.193089187145233 ], [ 752430.702313615824096, 744340.528431651182473 ], [ 753047.222302874084562, 733225.341136436909437 ] ] ] } },
{ "type": "Feature", "properties": { "precipitation": 753.17083740234375, "NH4_dry": 150.17843627929688, "NH4_wet": 330.38143920898438, "NO3_dry": 96.946365356445313, "NO3_wet": 194.82539367675781, "Shape_Area": 72226062.178065732 }, "geometry": { "type": "Polygon", "coordinates": [ [ [ 759532.250145002151839, 733589.441533162258565 ], [ 766017.021796049783006, 733962.775378321297467 ], [ 765368.831085003446788, 745077.079993899911642 ], [ 758899.895786580163985, 744704.193089187145233 ], [ 759532.250145002151839, 733589.441533162258565 ] ] ] } },
{ "type": "Feature", "properties": { "precipitation": 760.81768798828125, "NH4_dry": 222.39669799804688, "NH4_wet": 343.30191040039063, "NO3_dry": 112.76438903808594, "NO3_wet": 195.18423461914063, "Shape_Area": 72232164.495546401 }, "geometry": { "type": "Polygon", "coordinates": [ [ [ 766017.021796049783006, 733962.775378321297467 ], [ 772501.53074953192845, 734345.343848446384072 ], [ 771837.501653278013691, 745459.190309569239616 ], [ 765368.831085003446788, 745077.079993899911642 ], [ 766017.021796049783006, 733962.775378321297467 ] ] ] } },
{ "type": "Feature", "properties": { "precipitation": 770.31097412109375, "NH4_dry": 160.40969848632813, "NH4_wet": 347.84390258789063, "NO3_dry": 110.07865142822266, "NO3_wet": 204.86320495605469, "Shape_Area": 72238415.654421806 }, "geometry": { "type": "Polygon", "coordinates": [ [ [ 772501.53074953192845, 734345.343848446384072 ], [ 778985.77049142238684, 734737.148148844949901 ], [ 778305.900928289629519, 745850.525228432379663 ], [ 771837.501653278013691, 745459.190309569239616 ], [ 772501.53074953192845, 734345.343848446384072 ] ] ] } },
{ "type": "Feature", "properties": { "precipitation": 773.76043701171875, "NH4_dry": 208.68727111816406, "NH4_wet": 360.04156494140625, "NO3_dry": 97.921821594238281, "NO3_wet": 209.75457763671875, "Shape_Area": 72244815.654852301 }, "geometry": { "type": "Polygon", "coordinates": [ [ [ 778985.77049142238684, 734737.148148844949901 ], [ 785469.734499969752505, 735138.189513573423028 ], [ 784774.022339234943502, 746251.08597116637975 ], [ 778305.900928289629519, 745850.525228432379663 ], [ 778985.77049142238684, 734737.148148844949901 ] ] ] } },
{ "type": "Feature", "properties": { "precipitation": 784.15081787109375, "NH4_dry": 264.91683959960938, "NH4_wet": 349.02304077148438, "NO3_dry": 133.26834106445313, "NO3_wet": 211.69720458984375, "Shape_Area": 72251364.496958241 }, "geometry": { "type": "Polygon", "coordinates": [ [ [ 785469.734499969752505, 735138.189513573423028 ], [ 791953.416245512664318, 735548.46920542512089 ], [ 791241.859307436039671, 746660.873786857351661 ], [ 784774.022339234943502, 746251.08597116637975 ], [ 785469.734499969752505, 735138.189513573423028 ] ] ] } },
{ "type": "Feature", "properties": { "precipitation": 803.36651611328125, "NH4_dry": 191.71917724609375, "NH4_wet": 335.45498657226563, "NO3_dry": 100.34886169433594, "NO3_wet": 210.91764831542969, "Shape_Area": 72258062.180841848 }, "geometry": { "type": "Polygon", "coordinates": [ [ [ 791953.416245512664318, 735548.46920542512089 ], [ 798436.809190294472501, 735967.988515903241932 ], [ 797709.405246157781221, 747079.889952993951738 ], [ 791241.859307436039671, 746660.873786857351661 ], [ 791953.416245512664318, 735548.46920542512089 ] ] ] } }
]
}
